[{"OBJECT_NAME":"OBJECT AS","OBJECT_ID":"2023-085AS","EPOCH":"2026-03-09T22:43:55.521696","MEAN_MOTION":15.33336233,"ECCENTRICITY":0.00083243,"INCLINATION":97.4812,"RA_OF_ASC_NODE":180.8852,"ARG_OF_PERICENTER":80.6036,"MEAN_ANOMALY":279.6147,"EPHEMERIS_TYPE":0,"CLASSIFICATION_TYPE":"U","NORAD_CAT_ID":57044,"ELEMENT_SET_NO":999,"REV_AT_EPOCH":15162,"BSTAR":0.00067677795,"MEAN_MOTION_DOT":0.00021782,"MEAN_MOTION_DDOT":0},{"OBJECT_NAME":"STARLINK-32306","OBJECT_ID":"2024-183M","EPOCH":"2026-03-09T11:36:05.913792","MEAN_MOTION":15.30188628,"ECCENTRICITY":0.00011584,"INCLINATION":53.1599,"RA_OF_ASC_NODE":143.2003,"ARG_OF_PERICENTER":69.6853,"MEAN_ANOMALY":290.4272,"EPHEMERIS_TYPE":0,"CLASSIFICATION_TYPE":"U","NORAD_CAT_ID":61520,"ELEMENT_SET_NO":999,"REV_AT_EPOCH":7962,"BSTAR":8.1752832e-5,"MEAN_MOTION_DOT":2.062e-5,"MEAN_MOTION_DDOT":0}]
